[{"OBJECT_NAME":"STARLINK-34937","OBJECT_ID":"2025-243R","EPOCH":"2026-03-09T21:57:05.969088","MEAN_MOTION":15.30191825,"ECCENTRICITY":0.00012043,"INCLINATION":53.1565,"RA_OF_ASC_NODE":244.5348,"ARG_OF_PERICENTER":76.4709,"MEAN_ANOMALY":283.6426,"EPHEMERIS_TYPE":0,"CLASSIFICATION_TYPE":"U","NORAD_CAT_ID":66192,"ELEMENT_SET_NO":999,"REV_AT_EPOCH":2068,"BSTAR":0.001165133,"MEAN_MOTION_DOT":0.00034299,"MEAN_MOTION_DDOT":0},{"OBJECT_NAME":"FENGYUN 1C DEB","OBJECT_ID":"1999-025ETT","EPOCH":"2026-03-07T08:30:03.670560","MEAN_MOTION":15.28888299,"ECCENTRICITY":0.00158464,"INCLINATION":99.1103,"RA_OF_ASC_NODE":112.0072,"ARG_OF_PERICENTER":201.0032,"MEAN_ANOMALY":159.0553,"EPHEMERIS_TYPE":0,"CLASSIFICATION_TYPE":"U","NORAD_CAT_ID":38726,"ELEMENT_SET_NO":999,"REV_AT_EPOCH":71135,"BSTAR":0.013792546,"MEAN_MOTION_DOT":0.00409659,"MEAN_MOTION_DDOT":0}]
